HELIOS 1B               
1 25977U 99064A   21065.90819330  .00000097  00000-0  19176-4 0  9999
2 25977  98.3067 236.4305 0001175 155.0876 205.0393 14.82536880414000
TERRA                   
1 25994U 99068A   21065.91593557  .00000064  00000-0  24184-4 0  9992
2 25994  98.1849 142.1792 0001267  93.0788 354.1350 14.57123219128419
SL-16 R/B               
1 26070U 00006B   21065.49069307 -.00000166  00000-0 -60703-4 0  9998
2 26070  71.0054 342.6112 0014149  84.6743 275.5994 14.15472502 89711
MTI                     
1 26102U 00014A   21066.19362189  .00010736  00000-0  13862-3 0  9990
2 26102  97.4732 327.4542 0006224 353.2837   6.8316 15.59143078165400
TITAN 4B R/B            
1 26474U 00047B   21065.73555202  .00000254  00000-0  32700-4 0  9994
2 26474  67.9929  73.6747 0061162 269.1888  90.2246 14.96097181118479
ENVISAT                 
1 27386U 02009A   21066.22384883  .00000040  00000-0  26550-4 0  9996
2 27386  98.1456  65.5206 0001298  92.8411 277.7434 14.38015315996380
IDEFIX & ARIANE 42P R/B 
1 27422U 02021B   21066.11274849  .00000029  00000-0  27738-4 0  9995
2 27422  98.3901  22.8132 0012262 169.7474 190.3961 14.29310277980796
AQUA                    
1 27424U 02022A   21065.93350969  .00000101  00000-0  32458-4 0  9991
2 27424  98.2119   8.7700 0000212 129.0710 304.4809 14.57112576  2108
CZ-4B R/B               
1 27432U 02024C   21065.79279412 -.00000023  00000-0  11943-4 0  9999
2 27432  99.0905  78.4574 0050869 155.3937  17.5782 14.14104916970724
MIDORI II (ADEOS-II)    
1 27597U 02056A   21066.10957213  .00000045  00000-0  35821-4 0  9998
2 27597  98.5538  13.5308 0000681  28.8006 331.3213 14.27487225949289
H-2A R/B                
1 27601U 02056E   21065.85456080 -.00000057  00000-0 -59383-5 0  9996
2 27601  98.2007  93.7328 0071520 215.0264 318.2481 14.31990868952249
CZ-4B R/B               
1 28059U 03049C   21066.03731671  .00000044  00000-0  22277-4 0  9995
2 28059  98.4921 351.5610 0051103  56.5857 304.0211 14.52638184920932
CZ-2C R/B               
1 28222U 04012C   21066.16101899  .00000587  00000-0  38703-4 0  9998
2 28222  97.7153  36.0282 0045953 209.7253 160.6535 15.10736310925688
SL-16 R/B               
1 28353U 04021B   21065.82976938 -.00000328  00000-0 -14666-3 0  9995
2 28353  71.0000 109.0475 0007613 287.9770  72.0522 14.14239836864236
CZ-4B R/B               
1 28415U 04035C   21066.05299557  .00000555  00000-0  40230-4 0  9997
2 28415  97.5801 110.2362 0051583 175.1179 185.0563 15.07043331903186
CZ-2C R/B               
1 28480U 04046B   21065.84033005  .00000054  00000-0  35350-4 0  9992
2 28480  98.0570  86.0899 0142200 167.4250   5.5081 14.25743430847806
ARIANE 5 R/B            
1 28499U 04049H   21065.76896523  .00000145  00000-0  25105-4 0  9996
2 28499  98.0610 174.5444 0092912 144.9003   5.6809 14.80096829874892
CZ-2D R/B               
1 28738U 05024B   21066.08794927  .00000590  00000-0  37653-4 0  9992
2 28738  97.3681  85.7158 0011817   4.2954 355.8376 15.12295237861111
SUZAKU (ASTRO-EII)      
1 28773U 05025A   21066.20662073  .00001530  00000-0  68808-4 0  9993
2 28773  31.3815 107.5100 0004519 332.6760  27.3649 15.18150399863897
ALOS (DAICHI)           
1 28931U 06002A   21066.22830542  .00000193  00000-0  46388-4 0  9998
2 28931  97.8759  45.5069 0001746  35.5721 324.5593 14.62806225806113
H-2A R/B                
1 28932U 06002B   21065.77006407  .00000124  00000-0  17706-4 0  9999
2 28932  98.3326  76.7977 0088346 182.6414 350.5221 14.92462860820263
AKARI (ASTRO-F)         
1 28939U 06005A   21065.94746491  .00004274  00000-0  10872-3 0  9998
2 28939  98.2503  76.9008 0090472 124.3836 236.6003 15.36126287821168
RESURS-DK 1             
1 29228U 06021A   21065.76968495  .00000190  00000-0  21509-4 0  9991
2 29228  69.9337 240.1636 0002440  20.2222 339.9035 15.02652170812129
GENESIS 1               
1 29252U 06029A   21066.21931468  .00000576  00000-0  37560-4 0  9999
2 29252  64.5219 161.9402 0032180 335.6208  24.3391 15.18505758808073
CZ-4B R/B               
1 29507U 06046C   21065.81423228  .00000893  00000-0  73777-4 0  9998
2 29507  97.7206  92.2822 0048812   2.7345 357.4136 15.00683508784717
CZ-2C R/B               
1 31114U 07010B   21065.90148831 -.00000011  00000-0  13560-4 0  9998
2 31114  98.2378 266.7883 0058951 221.1089 138.5640 14.19347924720246
COSMO-SKYMED 1          
1 31598U 07023A   21066.02623516  .00000252  00000-0  38159-4 0  9997
2 31598  97.8872 251.3712 0001468  87.9999 272.1366 14.82156378743725
GENESIS 2               
1 31789U 07028A   21066.12549348  .00000913  00000-0  55051-4 0  9999
2 31789  64.5069 204.4046 0023154 211.8166 148.1559 15.17651776755028
COSMOS 2428             
1 31792U 07029A   21066.05754197  .00000008  00000-0  30423-4 0  9997
2 31792  70.8904  81.1857 0005232  11.0068 349.1166 14.12238105705942
SL-16 R/B               
1 31793U 07029B   21065.74112819  .00000175  00000-0  11604-3 0  9996
2 31793  70.9761  55.3845 0002706 265.2083 267.5388 14.14446217706743
KORONAS-FOTON           
1 33504U 09003A   21066.11152321  .00000941  00000-0  47204-4 0  9993
2 33504  82.4433 321.4331 0020582  90.0124 270.3466 15.15894597667271
H-2A R/B                
1 38341U 12025E   21065.44829002  .00000297  00000-0  42111-4 0  9993
2 38341  98.5229 243.8980 0056573 110.0521 250.6793 14.84181681476221
CUSAT 2 & FALCON 9 R/B  
1 39271U 13055G   21066.17773668  .00007657  00000-0  17833-3 0  9996
2 39271  80.9676 343.7551 0576370  98.3215 268.3722 14.51227689388794
SL-4 R/B                
1 39679U 14021B   21066.12612245  .00000567  00000-0  45202-4 0  9995
2 39679  51.6163 328.1247 0171107 136.1232 225.3475 15.06786885378943
ALOS-2                  
1 39766U 14029A   21066.26478769  .00000117  00000-0  22554-4 0  9992
2 39766  97.9197 165.1002 0001711  97.8537 262.2884 14.79472348366555
CZ-2C R/B               
1 40306U 14071B   21065.84882557  .00005680  00000-0  11313-3 0  9998
2 40306  97.3585  21.5240 0012555 292.1483  67.8434 15.47242692354380
SL-27 R/B               
1 40354U 14084B   21066.16179885  .00001742  00000-0  42714-4 0  9999
2 40354  74.7377 204.3775 0038143 261.1040  98.5853 15.40838102348986
YAOGAN 29               
1 41038U 15069A   21066.21809423  .00000041  00000-0  12345-4 0  9995
2 41038  98.0326  60.0734 0002255 100.6034 259.5441 14.80489667285158
ASTRO-H (HITOMI)        
1 41337U 16012A   21065.60672124  .00000386  00000-0  24343-4 0  9997
2 41337  31.0049 147.4724 0012255 142.1036 218.0464 14.98794708276869
HXMT (HUIYAN)           
1 42758U 17034A   21066.19582034  .00000488  00000-0  43858-4 0  9990
2 42758  43.0177  34.3727 0010261 245.9474 236.5079 15.09086869205563
CZ-2C R/B               
1 43521U 18054D   21066.16146356  .00000830  00000-0  46397-4 0  9994
2 43521  35.1552   0.5645 0082998 275.2809  83.8439 15.11343280148913
AEOLUS                  
1 43600U 18066A   21066.14176753  .00039840  00000-0  15613-3 0  9996
2 43600  96.7205  74.5486 0007468  92.2461 267.9668 15.86842764147026
SAOCOM 1A               
1 43641U 18076A   21066.03466146  .00000034  00000-0  10800-4 0  9995
2 43641  97.8881 254.4108 0001486  82.6922 277.4461 14.82151256130496
CREW DRAGON DEMO-1 DEB  
1 44064U 19011B   21065.66559678  .00056922  00000-0  32236-3 0  9999
2 44064  51.6264  53.9671 0002990  18.4489 341.6620 15.78501286114101
CZ-2F R/B               
1 46390U 20063B   21065.66496359  .00053693  12080-4  18755-3 0  9995
2 46390  50.2000 162.9833 0010384  11.6003 348.5219 15.89689317 29044
2020-063G               
1 46395U 20063G   21065.83570086  .00021155  00000-0  10125-3 0  9995
2 46395  50.2033 166.6242 0009614   7.4501 352.6622 15.82627740 29005
